{"type": "FeatureCollection", "features": [ {"type": "Feature", "properties": {"norad_id": 66850, "name": "STARLINK-36105", "group": "last-30-days", "lat": 9.643414080516342, "lon": -155.22026292105653, "alt_km": 413.5172240565025, "timestamp": "2025-12-27T03:58:42.932594+00:00", "meta": {"OBJECT_NAME": "STARLINK-36105", "OBJECT_ID": "2025-281C", "EPOCH": "2025-12-26T20:00:01.999008", "MEAN_MOTION": 15.5068909, "ECCENTRICITY": 0.0001123, "INCLINATION": 43.0006, "RA_OF_ASC_NODE": 37.2308, "ARG_OF_PERICENTER": 253.8754, "MEAN_ANOMALY": 213.9671, "EPHEMERIS_TYPE": 0, "CLASSIFICATION_TYPE": "U", "NORAD_CAT_ID": 66850, "ELEMENT_SET_NO": 999, "REV_AT_EPOCH": 365, "BSTAR": -0.003327, "MEAN_MOTION_DOT": -0.00191567, "MEAN_MOTION_DDOT": 0}, "tle": {"line1": "1 66850U 25281C   25360.83335647 -.00191567  00000+0 -33270-2 0  9995", "line2": "2 66850  43.0006  37.2308 0001123 253.8754 213.9671 15.50689090  3650"}}, "geometry": {"type": "Point", "coordinates": [-155.22026292105653, 9.643414080516342]}}, {"type": "Feature", "properties": {"norad_id": 66851, "name": "STARLINK-36094", "group": "last-30-days", "lat": 8.372517157550487, "lon": -153.8063539475065, "alt_km": 413.4170155526863, "timestamp": "2025-12-27T03:58:42.932603+00:00", "meta": {"OBJECT_NAME": "STARLINK-36094", "OBJECT_ID": "2025-281D", "EPOCH": "2025-12-26T20:00:01.999008", "MEAN_MOTION": 15.5071655, "ECCENTRICITY": 0.0001197, "INCLINATION": 43.0006, "RA_OF_ASC_NODE": 37.2259, "ARG_OF_PERICENTER": 240.0165, "MEAN_ANOMALY": 229.6888, "EPHEMERIS_TYPE": 0, "CLASSIFICATION_TYPE": "U", "NORAD_CAT_ID": 66851, "ELEMENT_SET_NO": 999, "REV_AT_EPOCH": 365, "BSTAR": -0.0035135, "MEAN_MOTION_DOT": -0.00202216, "MEAN_MOTION_DDOT": 0}, "tle": {"line1": "1 66851U 25281D   25360.83335647 -.00202216  00000+0 -35135-2 0  9992", "line2": "2 66851  43.0006  37.2259 0001197 240.0165 229.6888 15.50716550  3657"}}, "geometry": {"type": "Point", "coordinates": [-153.8063539475065, 8.372517157550487]}}, {"type": "Feature", "properties": {"norad_id": 66852, "name": "STARLINK-35992", "group": "last-30-days", "lat": 7.0944980140270895, "lon": -152.39855707310528, "alt_km": 413.9939212276322, "timestamp": "2025-12-27T03:58:42.932613+00:00", "meta": {"OBJECT_NAME": "STARLINK-35992", "OBJECT_ID": "2025-281E", "EPOCH": "2025-12-26T20:00:01.999008", "MEAN_MOTION": 15.50676342, "ECCENTRICITY": 4.58e-05, "INCLINATION": 43.0007, "RA_OF_ASC_NODE": 37.2217, "ARG_OF_PERICENTER": 296.6033, "MEAN_ANOMALY": 175.0028, "EPHEMERIS_TYPE": 0, "CLASSIFICATION_TYPE": "U", "NORAD_CAT_ID": 66852, "ELEMENT_SET_NO": 999, "REV_AT_EPOCH": 365, "BSTAR": -0.0021364, "MEAN_MOTION_DOT": -0.00124126, "MEAN_MOTION_DDOT": 0}, "tle": {"line1": "1 66852U 25281E   25360.83335647 -.00124126  00000+0 -21364-2 0  9995", "line2": "2 66852  43.0007  37.2217 0000458 296.6033 175.0028 15.50676342  3657"}}, "geometry": {"type": "Point", "coordinates": [-152.39855707310528, 7.0944980140270895]}}, {"type": "Feature", "properties": {"norad_id": 66853, "name": "STARLINK-35986", "group": "last-30-days", "lat": 5.795317487772229, "lon": -150.9807834828609, "alt_km": 414.2148039102203, "timestamp": "2025-12-27T03:58:42.932623+00:00", "meta": {"OBJECT_NAME": "STARLINK-35986", "OBJECT_ID": "2025-281F", "EPOCH": "2025-12-26T20:00:01.999008", "MEAN_MOTION": 15.50676553, "ECCENTRICITY": 4.97e-05, "INCLINATION": 43.0008, "RA_OF_ASC_NODE": 37.2169, "ARG_OF_PERICENTER": 302.4034, "MEAN_ANOMALY": 171.1223, "EPHEMERIS_TYPE": 0, "CLASSIFICATION_TYPE": "U", "NORAD_CAT_ID": 66853, "ELEMENT_SET_NO": 999, "REV_AT_EPOCH": 365, "BSTAR": -0.0021594, "MEAN_MOTION_DOT": -0.00125443, "MEAN_MOTION_DDOT": 0}, "tle": {"line1": "1 66853U 25281F   25360.83335647 -.00125443  00000+0 -21594-2 0  9994", "line2": "2 66853  43.0008  37.2169 0000497 302.4034 171.1223 15.50676553  3653"}}, "geometry": {"type": "Point", "coordinates": [-150.9807834828609, 5.795317487772229]}}, {"type": "Feature", "properties": {"norad_id": 66854, "name": "STARLINK-36087", "group": "last-30-days", "lat": 4.505671052037754, "lon": -149.58429349750443, "alt_km": 414.3872939892035, "timestamp": "2025-12-27T03:58:42.932634+00:00", "meta": {"OBJECT_NAME": "STARLINK-36087", "OBJECT_ID": "2025-281G", "EPOCH": "2025-12-26T20:00:01.999008", "MEAN_MOTION": 15.50629779, "ECCENTRICITY": 4.68e-05, "INCLINATION": 43.0007, "RA_OF_ASC_NODE": 37.2115, "ARG_OF_PERICENTER": 306.353, "MEAN_ANOMALY": 169.1001, "EPHEMERIS_TYPE": 0, "CLASSIFICATION_TYPE": "U", "NORAD_CAT_ID": 66854, "ELEMENT_SET_NO": 999, "REV_AT_EPOCH": 365, "BSTAR": -0.00095056, "MEAN_MOTION_DOT": -0.00055807, "MEAN_MOTION_DDOT": 0}, "tle": {"line1": "1 66854U 25281G   25360.83335647 -.00055807  00000+0 -95056-3 0  9996", "line2": "2 66854  43.0007  37.2115 0000468 306.3530 169.1001 15.50629779  3655"}}, "geometry": {"type": "Point", "coordinates": [-149.58429349750443, 4.505671052037754]}}, {"type": "Feature", "properties": {"norad_id": 66855, "name": "STARLINK-36090", "group": "last-30-days", "lat": 3.214056197088109, "lon": -148.19318931563333, "alt_km": 414.57164128734803, "timestamp": "2025-12-27T03:58:42.932643+00:00", "meta": {"OBJECT_NAME": "STARLINK-36090", "OBJECT_ID": "2025-281H", "EPOCH": "2025-12-26T20:00:01.999008", "MEAN_MOTION": 15.50568853, "ECCENTRICITY": 6.3e-05, "INCLINATION": 43.0008, "RA_OF_ASC_NODE": 37.2064, "ARG_OF_PERICENTER": 300.9737, "MEAN_ANOMALY": 176.411, "EPHEMERIS_TYPE": 0, "CLASSIFICATION_TYPE": "U", "NORAD_CAT_ID": 66855, "ELEMENT_SET_NO": 999, "REV_AT_EPOCH": 352, "BSTAR": 0.0008665, "MEAN_MOTION_DOT": 0.00050803, "MEAN_MOTION_DDOT": 0}, "tle": {"line1": "1 66855U 25281H   25360.83335647  .00050803  00000+0  86650-3 0  9996", "line2": "2 66855  43.0008  37.2064 0000630 300.9737 176.4110 15.50568853  3523"}}, "geometry": {"type": "Point", "coordinates": [-148.19318931563333, 3.214056197088109]}}, {"type": "Feature", "properties": {"norad_id": 66856, "name": "STARLINK-36072", "group": "last-30-days", "lat": 1.872538399043124, "lon": -146.7539168477345, "alt_km": 414.4741125221017, "timestamp": "2025-12-27T03:58:42.932652+00:00", "meta": {"OBJECT_NAME": "STARLINK-36072", "OBJECT_ID": "2025-281J", "EPOCH": "2025-12-26T20:00:01.999008", "MEAN_MOTION": 15.50661362, "ECCENTRICITY": 0.0001053, "INCLINATION": 43.0007, "RA_OF_ASC_NODE": 37.2016, "ARG_OF_PERICENTER": 257.8917, "MEAN_ANOMALY": 221.4297, "EPHEMERIS_TYPE": 0, "CLASSIFICATION_TYPE": "U", "NORAD_CAT_ID": 66856, "ELEMENT_SET_NO": 999, "REV_AT_EPOCH": 365, "BSTAR": -0.0021938, "MEAN_MOTION_DOT": -0.00127339, "MEAN_MOTION_DDOT": 0}, "tle": {"line1": "1 66856U 25281J   25360.83335647 -.00127339  00000+0 -21938-2 0  9995", "line2": "2 66856  43.0007  37.2016 0001053 257.8917 221.4297 15.50661362  3650"}}, "geometry": {"type": "Point", "coordinates": [-146.7539168477345, 1.872538399043124]}}, {"type": "Feature", "properties": {"norad_id": 66857, "name": "STARLINK-36083", "group": "last-30-days", "lat": 0.5597823566922691, "lon": -145.3487903251592, "alt_km": 414.57360753435387, "timestamp": "2025-12-27T03:58:42.932661+00:00", "meta": {"OBJECT_NAME": "STARLINK-36083", "OBJECT_ID": "2025-281K", "EPOCH": "2025-12-26T20:00:01.999008", "MEAN_MOTION": 15.50665439, "ECCENTRICITY": 0.0001131, "INCLINATION": 43.0006, "RA_OF_ASC_NODE": 37.1969, "ARG_OF_PERICENTER": 253.6798, "MEAN_ANOMALY": 227.5687, "EPHEMERIS_TYPE": 0, "CLASSIFICATION_TYPE": "U", "NORAD_CAT_ID": 66857, "ELEMENT_SET_NO": 999, "REV_AT_EPOCH": 365, "BSTAR": -0.0024299, "MEAN_MOTION_DOT": -0.00140788, "MEAN_MOTION_DDOT": 0}, "tle": {"line1": "1 66857U 25281K   25360.83335647 -.00140788  00000+0 -24299-2 0  9992", "line2": "2 66857  43.0006  37.1969 0001131 253.6798 227.5687 15.50665439  3653"}}, "geometry": {"type": "Point", "coordinates": [-145.3487903251592, 0.5597823566922691]}}, {"type": "Feature", "properties": {"norad_id": 66858, "name": "STARLINK-35118", "group": "last-30-days", "lat": -0.7449868152691645, "lon": -143.95336749729958, "alt_km": 414.59165619113446, "timestamp": "2025-12-27T03:58:42.932672+00:00", "meta": {"OBJECT_NAME": "STARLINK-35118", "OBJECT_ID": "2025-281L", "EPOCH": "2025-12-26T20:00:01.999008", "MEAN_MOTION": 15.50632043, "ECCENTRICITY": 0.000127, "INCLINATION": 43.0007, "RA_OF_ASC_NODE": 37.192, "ARG_OF_PERICENTER": 245.4675, "MEAN_ANOMALY": 237.7181, "EPHEMERIS_TYPE": 0, "CLASSIFICATION_TYPE": "U", "NORAD_CAT_ID": 66858, "ELEMENT_SET_NO": 999, "REV_AT_EPOCH": 343, "BSTAR": -0.0016891, "MEAN_MOTION_DOT": -0.00098383, "MEAN_MOTION_DDOT": 0}, "tle": {"line1": "1 66858U 25281L   25360.83335647 -.00098383  00000+0 -16891-2 0  9995", "line2": "2 66858  43.0007  37.1920 0001270 245.4675 237.7181 15.50632043  3432"}}, "geometry": {"type": "Point", "coordinates": [-143.95336749729958, -0.7449868152691645]}}, {"type": "Feature", "properties": {"norad_id": 66859, "name": "STARLINK-35646", "group": "last-30-days", "lat": -2.0725368474821195, "lon": -142.53262073843968, "alt_km": 415.1255718538732, "timestamp": "2025-12-27T03:58:42.932681+00:00", "meta": {"OBJECT_NAME": "STARLINK-35646", "OBJECT_ID": "2025-281M", "EPOCH": "2025-12-26T20:00:01.999008", "MEAN_MOTION": 15.50614649, "ECCENTRICITY": 0.0001114, "INCLINATION": 43.0004, "RA_OF_ASC_NODE": 37.1866, "ARG_OF_PERICENTER": 266.07, "MEAN_ANOMALY": 219.09, "EPHEMERIS_TYPE": 0, "CLASSIFICATION_TYPE": "U", "NORAD_CAT_ID": 66859, "ELEMENT_SET_NO": 999, "REV_AT_EPOCH": 365, "BSTAR": -0.0019576, "MEAN_MOTION_DOT": -0.00113671, "MEAN_MOTION_DDOT": 0}, "tle": {"line1": "1 66859U 25281M   25360.83335647 -.00113671  00000+0 -19576-2 0  9997", "line2": "2 66859  43.0004  37.1866 0001114 266.0700 219.0900 15.50614649  3652"}}, "geometry": {"type": "Point", "coordinates": [-142.53262073843968, -2.0725368474821195]}}]}